C/2022 L2 (ATLAS),h,03/12.2749/2024,129.3147,39.2412,199.9236,1.001496,2.692672,2000,6.5,4.0
# From MPEC 2023-X98
P/2022 L3 (ATLAS),e,21.5430,29.8058,10.3508,6.501961,0.0594480,0.62773910,24.1365,12/10.0/2023,2000,g 16.5,4.0
# From MPEC 2022-N37
C/2022 L4 (PANSTARRS),e,141.2427,66.0617,125.3317,284.5995,0.0002053,0.98940854,0.0000,12/08.8848/2021,2000,g 14.0,4.0
# From MPEC 2023-FK0
C/2022 N1 (Attard-Maury),e,164.7365,301.8712,41.0603,36.99863,0.0043795,0.95997190,1.9968,12/10.0/2023,2000,g 16.9,4.0
# From MPEC 2023-X98
C/2022 N2 (PANSTARRS),h,07/31.5503/2025,5.5024,319.7396,75.3547,1.003822,3.826441,2000,6.0,4.0
# From MPEC 2023-R20
C/2022 O1 (ATLAS),h,02/15.8533/2022,71.0411,49.9172,268.9188,1.003456,7.431757,2000,6.0,4.0
# From MPEC 2023-HD1
P/2022 O2 (PANSTARRS),e,9.4242,330.4896,48.6327,6.306040,0.0622399,0.72137700,20.9719,12/10.0/2023,2000,g 16.2,4.0
# From MPEC 2023-N01
C/2022 P1 (NEOWISE),e,154.6058,205.0825,249.9438,18.47473,0.0124119,0.91365686,4.6728,12/10.0/2023,2000,g 13.0,4.0
# From MPEC 2023-X98
P/2022 P2 (ZTF),e,12.4401,291.2125,137.6551,4.487834,0.1036690,0.55817081,53.6052,12/10.0/2023,2000,g 12.5,4.0
# From MPEC 2023-HD1
C/2022 P3 (ZTF),e,59.5164,72.2230,0.1299,249.6156,0.0002499,0.98973546,0.0000,07/27.4216/2022,2000,g  9.0,4.0
# From MPEC 2023-R20
C/2022 Q2 (ATLAS),e,151.4839,352.9482,44.0726,32.82670,0.0052404,0.94991476,1.6370,12/10.0/2023,2000,g 13.0,4.0
# From MPEC 2023-X98
C/2022 QE78 (ATLAS),h,09/10.1545/2025,36.5482,119.9456,0.3577,1.003682,5.480912,2000,5.0,4.0
# From MPEC 2023-W26
P/2022 R1 (PANSTARRS),e,7.3806,176.0404,222.0838,7.236190,0.0506336,0.50619302,3.1701,12/10.0/2023,2000,g 11.5,4.0
# From MPEC 2022-Y15
C/2022 R2 (ATLAS),e,52.9053,60.4104,78.3525,419.1692,0.0001148,0.99849208,0.0000,10/25.2520/2022,2000,g 17.0,4.0
# From MPEC 2023-X98
C/2022 R3 (Leonard),h,03/05.4622/2023,43.0826,8.2411,72.8824,1.001058,5.129270,2000,9.0,4.0
# From MPEC 2022-X67
P/2022 R4 (PANSTARRS),e,21.0206,176.6271,197.4569,3.836753,0.1311470,0.49006348,67.8872,12/10.0/2023,2000,g 16.5,4.0
# From MPEC 2022-WQ9
P/2022 R5 (PANSTARRS),e,15.2944,115.0505,240.5640,3.068763,0.1833408,0.19527473,102.9880,12/10.0/2023,2000,g 16.0,4.0
# From MPEC 2023-X98
C/2022 R6 (PANSTARRS),h,08/25.5392/2025,57.0217,150.7727,319.8584,1.004301,6.567161,2000,5.0,4.0
# From MPEC 2023-HD1
P/2022 S1 (PANSTARRS),e,34.5795,136.0929,262.7865,6.408337,0.0607556,0.50809888,29.0260,12/10.0/2023,2000,g 15.1,4.0
# From MPEC 2022-VC5
C/2022 S3 (PANSTARRS),h,01/21.6930/2023,78.5412,157.3169,267.9651,1.000399,0.838334,2000,17.0,4.0
# From MPEC 2023-X98
C/2022 S4 (Lemmon),e,101.2216,220.1749,268.5305,1405,0.0000187,0.99803471,0.0000,07/18.6541/2024,2000,g  8.0,4.0
# From MPEC 2023-HD1
C/2022 S5 (PANSTARRS),e,136.5326,214.8592,232.7972,20.44841,0.0106590,0.89343193,4.0235,12/10.0/2023,2000,g 16.3,4.0
# From MPEC 2023-M14
C/2022 T1 (Lemmon),e,22.5437,236.9173,324.3125,14988,0.0000005,0.99977015,0.0000,02/17.4914/2024,2000,g 12.0,4.0
# From MPEC 2023-X98
C/2022 U1 (Leonard),e,128.1491,72.5246,78.5712,8071,0.0000014,0.99947936,0.0000,03/25.7944/2024,2000,g  8.5,4.0
# From MPEC 2023-VM5
C/2022 U2 (ATLAS),e,48.2456,304.4638,147.9239,96.49575,0.0010398,0.98623680,0.0000,01/14.2348/2023,2000,g 16.0,4.0
# From MPEC 2023-X98
C/2022 U3 (Bok),h,07/28.0457/2024,33.6376,272.7889,189.0452,1.003212,4.826923,2000,7.5,4.0
# From MPEC 2023-W26
C/2022 U4 (Bok),e,52.0359,132.9220,89.0072,3129,0.0000056,0.99907366,0.0000,08/03.6639/2023,2000,g 10.5,4.0
# From MPEC 2023-W26
C/2022 V2 (Lemmon),e,98.9042,332.8709,168.9492,36.84949,0.0044061,0.94399979,0.1678,12/10.0/2023,2000,g 12.0,4.0
# From MPEC 2023-CD7
P/2022 W1 (Rankin),e,13.4660,38.8155,17.8326,6.969344,0.0535693,0.51664781,24.1102,12/10.0/2023,2000,g 12.5,4.0
# From MPEC 2023-X98
C/2022 W2 (ATLAS),e,63.5259,320.4516,123.2718,342.5625,0.0001555,0.99088356,0.0000,03/08.7435/2023,2000,g 11.5,4.0
# From MPEC 2023-W26
C/2022 W3 (Leonard),e,103.5593,132.2695,116.5249,280.6848,0.0002096,0.99502019,0.0000,06/22.7777/2023,2000,g 13.0,4.0
# From MPEC 2023-M14
C/2022 Y1 (Hogan),e,18.8557,285.9049,174.7721,12.57334,0.0221069,0.76473960,8.3489,12/10.0/2023,2000,g  9.0,4.0
# From MPEC 2023-TM6
C/2022 Y2 (Lemmon),e,165.9029,216.3531,105.5922,19.86432,0.0111325,0.87188864,2.9183,12/10.0/2023,2000,g 13.5,4.0
# From MPEC 2023-KD6
C/2023 A1 (Leonard),e,94.7392,318.3044,159.2480,225.8898,0.0002903,0.99187772,0.0000,03/18.7159/2023,2000,g 14.5,4.0
# From MPEC 2023-J95
C/2023 A2 (SWAN),e,94.7104,94.4777,142.5579,452.7907,0.0001023,0.99790825,0.0000,01/20.3735/2023,2000,g 13.5,4.0
# From MPEC 2023-X98
C/2023 A3 (Tsuchinshan-ATLAS),h,09/27.7392/2024,139.1158,21.5586,308.4867,1.000129,0.391466,2000,5.0,4.0
# From MPEC 2023-KD6
P/2023 B1 (PANSTARRS),e,14.5882,78.5699,81.3243,7.054924,0.0525976,0.12958371,11.8838,12/10.0/2023,2000,g  5.5,4.0
# From MPEC 2023-O39
C/2023 B2 (ATLAS),e,40.7715,218.1208,317.3864,597.1230,0.0000675,0.99708127,0.0000,03/10.4850/2023,2000,g 14.5,4.0
# From MPEC 2023-F81
P/2023 B3 (PANSTARRS),e,9.1609,154.0053,240.0881,4.546165,0.1016802,0.12315846,121.0951,12/10.0/2023,2000,g 10.5,4.0
# From MPEC 2023-OA6
C/2023 C2 (ATLAS),e,48.3162,301.0138,357.4573,3223,0.0000054,0.99926521,0.0000,11/16.8269/2024,2000,g  7.0,4.0
# From MPEC 2023-X98
C/2023 E1 (ATLAS),e,38.3111,164.5721,105.9049,19.35667,0.0115733,0.94695831,1.8736,12/10.0/2023,2000,g 15.5,4.0
# From MPEC 2023-N01
C/2023 F1 (PANSTARRS),e,131.7525,25.2479,216.6554,257.8263,0.0002381,0.99337465,0.0000,06/28.3490/2023,2000,g 16.0,4.0
# From MPEC 2023-T65
C/2023 F3 (ATLAS),h,02/02.7984/2025,145.9583,109.4479,265.5413,1.004273,5.190194,2000,6.0,4.0
# From MPEC 2023-M14
C/2023 H1 (PANSTARRS),e,21.7777,292.6399,333.8430,1553,0.0000161,0.99713971,0.0000,11/28.3951/2024,2000,g 12.6,4.0
# From MPEC 2023-X98
C/2023 H2 (Lemmon),e,113.7536,217.0447,150.6488,247.4925,0.0002531,0.99638613,0.0000,10/29.1898/2023,2000,g 14.0,4.0
# From MPEC 2023-R20
C/2023 H3 (PANSTARRS),e,2.4894,55.1001,193.3289,13.63060,0.0195854,0.61610380,358.6089,12/10.0/2023,2000,g 10.0,4.0
# From MPEC 2023-SQ0
A/2023 H4,e,76.6187,230.8136,64.8988,139.9659,0.0005952,0.98485826,0.0000,08/08.8046/2023,2000,g 18.0,22.0
# From MPEC 2023-W26
C/2023 H5 (Lemmon),h,06/30.1428/2025,97.8744,159.4824,60.0778,1.000416,4.312999,2000,7.0,4.0
# From MPEC 2023-VM5
C/2023 K1 (ATLAS),e,137.9986,223.7065,337.4689,731.8682,0.0000498,0.99721330,0.0000,09/07.7412/2023,2000,g 13.0,4.0
# From MPEC 2023-N01
P/2023 M1 (PANSTARRS),e,12.2883,216.8632,79.6864,6.848506,0.0549934,0.58734847,359.7586,12/10.0/2023,2000,g 13.5,4.0
# From MPEC 2023-X98
P/2023 M2 (PANSTARRS),e,19.7253,83.2662,243.0212,5.563332,0.0751107,0.36938207,10.3423,12/10.0/2023,2000,g 12.5,4.0
# From MPEC 2023-X98
P/2023 M4 (ATLAS),e,7.5927,296.2966,320.6804,5.452147,0.0774199,0.27925688,46.7623,12/10.0/2023,2000,g  7.5,4.0
# From MPEC 2023-X98
C/2023 P1 (Nishimura),e,132.4770,66.8349,116.2991,57.14010,0.0022819,0.99606004,0.0000,09/17.6421/2023,2000,g 10.0,4.0
# From MPEC 2023-X98
C/2023 Q1 (PANSTARRS),h,12/01.3139/2024,36.6732,7.1606,84.4333,1.004594,2.574970,2000,10.0,4.0
# From MPEC 2023-X98
C/2023 Q2 (PANSTARRS),e,104.0556,92.6810,171.7262,340.7609,0.0001567,0.99058177,0.0000,06/24.0907/2024,2000,g 11.5,4.0
# From MPEC 2023-X98
C/2023 R1 (PANSTARRS),h,04/14.0341/2026,149.3142,62.5483,144.2994,1.000844,3.569932,2000,6.0,4.0
# From MPEC 2023-X98
C/2023 R2 (PANSTARRS),h,08/12.1063/2024,30.7097,188.9521,337.2398,1.000550,0.905502,2000,10.5,4.0
# From MPEC 2023-UR6
A/2023 R3,e,12.0864,347.3531,86.8919,684.7266,0.0000550,0.99801738,0.0000,12/18.1833/2023,2000,g 20.0,22.0
# From MPEC 2023-X98
P/2023 S1,e,9.1468,317.5577,179.8715,3.855807,0.1301761,0.32076420,302.5724,12/10.0/2023,2000,g 11.5,4.0
# From MPEC 2023-X98
C/2023 S2 (ATLAS),e,20.4854,230.5624,78.1108,149.2968,0.0005403,0.99284841,0.0000,10/15.3784/2023,2000,g 15.0,4.0
# From MPEC 2023-X98
C/2023 S3 (Lemmon),e,140.4984,233.8337,281.5692,28.50228,0.0064772,0.97087327,0.0000,01/19.6225/2024,2000,g 16.0,4.0
# From MPEC 2023-X98
P/2023 T1 (PANSTARRS),e,6.6085,249.5767,202.8719,4.235794,0.1130581,0.33493520,341.3566,12/10.0/2023,2000,g 14.0,4.0
# From MPEC 2023-X98
C/2023 T2 (Borisov),e,48.5966,317.5310,111.2024,232.0899,0.0002788,0.99140259,0.0000,12/22.8053/2023,2000,g 14.5,4.0
# From MPEC 2023-X98
C/2023 T3 (Fuls),e,27.2215,246.0002,302.8253,617.6629,0.0000642,0.99425253,0.0000,01/25.4498/2025,2000,g  8.5,4.0
# From MPEC 2023-VM5
C/2023 U1 (Fuls),h,10/13.9857/2024,108.1887,305.8461,255.9869,1.010175,4.958572,2000,8.0,4.0
# From MPEC 2023-X98
C/2023 V1 (Lemmon),e,102.0093,15.0258,103.3097,10702,0.0000009,0.99952414,0.0000,07/13.1091/2025,2000,g  8.5,4.0
# From MPEC 2023-X98
P/2023 V2 (PANSTARRS),e,9.8795,95.4927,330.6062,7.262393,0.0503598,0.57253094,357.1659,12/10.0/2023,2000,g 13.5,4.0
# From MPEC 2023-X98
C/2023 V3 (PANSTARRS),e,40.2635,91.4786,291.5970,13.24399,0.0204492,0.66233816,2.5629,12/10.0/2023,2000,g 11.5,4.0
# From MPEC 2023-X98
C/2023 V4 (Camarasa-Duszanowicz),h,05/30.3955/2024,67.1237,66.3324,50.8712,1.000738,1.121528,2000,12.0,4.0
# From MPEC 2023-W26
C/2023 V5 (Leonard),h,12/13.4372/2023,73.9607,31.4431,56.3948,1.028232,0.849133,2000,21.5,4.0
# From MPEC 2023-X98
P/2023 V6 (PANSTARRS),e,3.9772,190.0437,194.1624,5.348173,0.0796885,0.18045367,28.2663,12/10.0/2023,2000,g 11.5,4.0
# From  98, 1083
1P/Halley,e,162.2139,59.6417,112.5592,17.86977,0.0130475,0.96668718,179.9846,12/10.0/2023,2000,g  4.0,6.0
# From MPEC 2023-X98
2P/Encke,e,11.3367,334.0189,187.2879,2.218685,0.2982363,0.84693942,14.4561,12/10.0/2023,2000,g 11.5,6.0
# From  76, 1135
3D/Biela,e,7.8871,276.1831,192.2793,3.539670,0.1479994,0.76736382,276.4878,12/10.0/2023,2000,g 11.0,6.0
# From  76, 1135
3D-A/Biela,e,7.2155,276.6891,192.1210,3.549291,0.1473980,0.76704169,307.2098,12/10.0/2023,2000,g 11.0,6.0
# From  76, 1135
3D-B/Biela,e,7.8791,276.1978,192.2402,3.540425,0.1479520,0.76766137,276.2370,12/10.0/2023,2000,g 11.0,6.0
# From MPEC 2023-FK0
